NORAD_CAT_ID,OBJECT_NAME,OBJECT_TYPE,EPOCH,MEAN_MOTION,ECCENTRICITY,INCLINATION,RA_OF_ASC_NODE,ARG_OF_PERICENTER,MEAN_ANOMALY,BSTAR,MEAN_MOTION_DOT,MEAN_MOTION_DDOT,TLE_LINE0,TLE_LINE1,TLE_LINE2,SEMIMAJOR_AXIS,PERIOD,APOGEE,PERIGEE,DECAYED
56484.0,STARLINK-6221,PAYLOAD,2024-01-17 03:29:18,14.98340729,0.0003178,70.0002,297.4528,274.1434,85.9362,3.7847e-05,3.59e-06,0.0,0 STARLINK-6221,1 56484U 23064AN  24017.14534777  .00000359  00000-0  37847-4 0  9994,2 56484  70.0002 297.4528 0003178 274.1434  85.9362 14.98340729 38886,6950.16,96.106,574.233,569.816,0.0
56484.0,STARLINK-6221,PAYLOAD,2024-01-17 05:05:26,14.98341692,0.0003092,70.0004,297.285,272.2851,87.7954,3.8266e-05,3.64e-06,0.0,0 STARLINK-6221,1 56484U 23064AN  24017.21210671  .00000364  00000-0  38266-4 0  9998,2 56484  70.0004 297.2850 0003092 272.2851  87.7954 14.98341692 38530,6950.157,96.106,574.171,569.873,0.0
56484.0,STARLINK-6221,PAYLOAD,2024-01-17 19:30:39,14.98324402,0.0002535,70.0017,295.7724,252.1733,107.915,0.00010105,1.113e-05,0.0,0 STARLINK-6221,1 56484U 23064AN  24017.81295561  .00001113  00000-0  10105-3 0  9999,2 56484  70.0017 295.7724 0002535 252.1733 107.9150 14.98324402 38986,6950.21,96.107,573.837,570.313,0.0
56484.0,STARLINK-6221,PAYLOAD,2024-01-17 22:42:55,14.98324748,0.0002612,70.0016,295.4356,251.2997,108.7878,8.9566e-05,9.76e-06,0.0,0 STARLINK-6221,1 56484U 23064AN  24017.94647557  .00000976  00000-0  89566-4 0  9993,2 56484  70.0016 295.4356 0002612 251.2997 108.7878 14.98324748 38643,6950.209,96.107,573.89,570.259,0.0
56484.0,STARLINK-6221,PAYLOAD,2024-01-18 03:31:20,14.98307662,0.0002652,70.0012,294.9286,253.2425,106.8443,0.00029476,3.424e-05,0.0,0 STARLINK-6221,1 56484U 23064AN  24018.14676091  .00003424  00000-0  29476-3 0  9995,2 56484  70.0012 294.9286 0002652 253.2425 106.8443 14.98307662 39034,6950.262,96.108,573.97,570.284,0.0
56484.0,STARLINK-6221,PAYLOAD,2024-01-18 19:32:40,14.98331429,0.0002502,70.001,293.246,253.1491,106.9394,-6.0234e-05,-8.12e-06,0.0,0 STARLINK-6221,1 56484U 23064AN  24018.81435653 -.00000812  00000-0 -60234-4 0  9994,2 56484  70.0010 293.2460 0002502 253.1491 106.9394 14.98331429 39139,6950.188,96.107,573.792,570.315,0.0
56484.0,STARLINK-6221,PAYLOAD,2024-01-18 21:08:48,14.983315,0.0002508,70.001,293.0775,252.893,107.1955,-5.7785e-05,-7.82e-06,0.0,0 STARLINK-6221,1 56484U 23064AN  24018.88111627 -.00000782  00000-0 -57785-4 0  9996,2 56484  70.0010 293.0775 0002508 252.8930 107.1955 14.98331500 38782,6950.188,96.107,573.796,570.31,0.0
56484.0,STARLINK-6221,PAYLOAD,2024-01-19 03:33:20,14.98331697,0.0002784,69.9999,292.4015,270.7326,89.3514,-3.7338e-05,-5.38e-06,0.0,0 STARLINK-6221,1 56484U 23064AN  24019.14815600 -.00000538  00000-0 -37338-4 0  9999,2 56484  69.9999 292.4015 0002784 270.7326  89.3514 14.98331697 38823,6950.188,96.107,573.988,570.118,0.0
56484.0,STARLINK-6221,PAYLOAD,2024-01-19 19:34:41,14.98330266,0.0002871,69.9997,290.7173,269.5006,90.5824,2.9987e-05,2.65e-06,0.0,0 STARLINK-6221,1 56484U 23064AN  24019.81575398  .00000265  00000-0  29987-4 0  9996,2 56484  69.9997 290.7173 0002871 269.5006  90.5824 14.98330266 39285,6950.192,96.107,574.052,570.062,0.0
56484.0,STARLINK-6221,PAYLOAD,2024-01-19 22:46:57,14.98331419,0.0002848,69.9997,290.3804,269.6473,90.436,4.5525e-05,4.5e-06,0.0,0 STARLINK-6221,1 56484U 23064AN  24019.94927273  .00000450  00000-0  45525-4 0  9995,2 56484  69.9997 290.3804 0002848 269.6473  90.4360 14.98331419 38942,6950.189,96.107,574.033,570.074,0.0
56484.0,STARLINK-6221,PAYLOAD,2024-01-20 03:35:20,14.98339726,0.000276,69.9999,289.8763,270.6675,89.4167,0.00013797,1.554e-05,0.0,0 STARLINK-6221,1 56484U 23064AN  24020.14954420  .00001554  00000-0  13797-3 0  9994,2 56484  69.9999 289.8763 0002760 270.6675  89.4167 14.98339726 39336,6950.163,96.106,573.946,570.11,0.0
56484.0,STARLINK-6221,PAYLOAD,2024-01-20 19:36:42,14.98325718,0.000319,69.9983,288.192,272.0945,87.9849,-3.6715e-05,-5.31e-06,0.0,0 STARLINK-6221,1 56484U 23064AN  24020.81715709 -.00000531  00000-0 -36715-4 0  9995,2 56484  69.9983 288.1920 0003190 272.0945  87.9849 14.98325718 39437,6950.206,96.107,574.288,569.854,0.0
56484.0,STARLINK-6221,PAYLOAD,2024-01-20 22:48:58,14.98324108,0.0003069,69.999,287.8556,270.4727,89.6081,-2.1766e-05,-3.53e-06,0.0,0 STARLINK-6221,1 56484U 23064AN  24020.95067785 -.00000353  00000-0 -21766-4 0  9996,2 56484  69.9990 287.8556 0003069 270.4727  89.6081 14.98324108 39092,6950.211,96.107,574.209,569.943,0.0
56484.0,STARLINK-6221,PAYLOAD,2024-01-21 03:37:22,14.98325663,0.0003065,69.9993,287.3511,269.6034,90.4774,1.2529e-05,5.6e-07,0.0,0 STARLINK-6221,1 56484U 23064AN  24021.15095638  .00000056  00000-0  12529-4 0  9992,2 56484  69.9993 287.3511 0003065 269.6034  90.4774 14.98325663 39128,6950.206,96.107,574.202,569.941,0.0
56484.0,STARLINK-6221,PAYLOAD,2024-01-21 19:38:43,14.98332695,0.0003005,69.9993,285.6686,268.3041,91.7774,-6.554e-05,-8.75e-06,0.0,0 STARLINK-6221,1 56484U 23064AN  24021.81855460 -.00000875  00000-0 -65540-4 0  9994,2 56484  69.9993 285.6686 0003005 268.3041  91.7774 14.98332695 39587,6950.185,96.107,574.138,569.961,0.0
56484.0,STARLINK-6221,PAYLOAD,2024-01-21 22:50:59,14.98332534,0.0002958,69.9995,285.332,267.6991,92.3829,-5.1284e-05,-7.05e-06,0.0,0 STARLINK-6221,1 56484U 23064AN  24021.95207407 -.00000705  00000-0 -51284-4 0  9993,2 56484  69.9995 285.3320 0002958 267.6991  92.3829 14.98332534 39246,6950.185,96.107,574.106,569.994,0.0
56484.0,STARLINK-6221,PAYLOAD,2024-01-22 03:39:22,14.98339265,0.0002923,69.9995,284.827,268.6437,91.4388,-2.2547e-05,-3.62e-06,0.0,0 STARLINK-6221,1 56484U 23064AN  24022.15234818 -.00000362  00000-0 -22547-4 0  9991,2 56484  69.9995 284.8270 0002923 268.6437  91.4388 14.98339265 39633,6950.164,96.106,574.061,569.998,0.0
56484.0,STARLINK-6221,PAYLOAD,2024-01-22 19:40:44,14.98323643,0.0002649,70.0002,283.1442,264.4783,95.6074,5.1693e-05,5.24e-06,0.0,0 STARLINK-6221,1 56484U 23064AN  24022.81995564  .00000524  00000-0  51693-4 0  9998,2 56484  70.0002 283.1442 0002649 264.4783  95.6074 14.98323643 39733,6950.213,96.107,573.919,570.236,0.0
56484.0,STARLINK-6221,PAYLOAD,2024-01-22 22:53:00,14.98343385,0.0002538,70.0002,282.8079,269.2348,90.852,-0.00028248,-3.463e-05,0.0,0 STARLINK-6221,1 56484U 23064AN  24022.95347240 -.00003463  00000-0 -28248-3 0  9991,2 56484  70.0002 282.8079 0002538 269.2348  90.8520 14.98343385 39392,6950.151,96.106,573.78,570.253,0.0
56484.0,STARLINK-6221,PAYLOAD,2024-01-23 03:41:22,14.98390569,0.0002519,70.0003,282.303,270.2737,89.8134,-0.0010419,-0.00012522,0.0,0 STARLINK-6221,1 56484U 23064AN  24023.15373663 -.00012522  00000-0 -10419-2 0  9998,2 56484  70.0003 282.3030 0002519 270.2737  89.8134 14.98390569 39786,6950.006,96.103,573.621,570.12,0.0
56484.0,STARLINK-6221,PAYLOAD,2024-01-23 22:55:00,14.98336593,0.0003022,69.9999,280.2831,266.3112,93.7702,-6.7149e-05,-8.94e-06,0.0,0 STARLINK-6221,1 56484U 23064AN  24023.95487105 -.00000894  00000-0 -67149-4 0  9996,2 56484  69.9999 280.2831 0003022 266.3112  93.7702 14.98336593 39542,6950.173,96.107,574.138,569.937,0.0
56484.0,STARLINK-6221,PAYLOAD,2024-01-24 02:07:16,14.98335186,0.0003005,70.0001,279.9466,260.1891,99.8929,7.5935e-06,-2e-08,0.0,0 STARLINK-6221,1 56484U 23064AN  24024.08838875 -.00000002  00000-0  75935-5 0  9998,2 56484  70.0001 279.9466 0003005 260.1891  99.8929 14.98335186 39922,6950.177,96.107,574.13,569.953,0.0
56484.0,STARLINK-6221,PAYLOAD,2024-01-24 19:44:45,14.98326505,0.0002629,70.0002,278.0951,253.4668,106.6203,1.1327e-05,4.2e-07,0.0,0 STARLINK-6221,1 56484U 23064AN  24024.82275428  .00000042  00000-0  11327-4 0  9996,2 56484  70.0002 278.0951 0002629 253.4668 106.6203 14.98326505 40031,6950.204,96.107,573.896,570.241,0.0
56484.0,STARLINK-6221,PAYLOAD,2024-01-24 21:20:53,14.9832628,0.0002565,70.0007,277.9274,242.813,117.2768,1.8125e-05,1.23e-06,0.0,0 STARLINK-6221,1 56484U 23064AN  24024.88951385  .00000123  00000-0  18125-4 0  9998,2 56484  70.0007 277.9274 0002565 242.8130 117.2768 14.98326280 39680,6950.204,96.107,573.852,570.287,0.0
56484.0,STARLINK-6221,PAYLOAD,2024-01-25 02:09:18,14.98323969,0.0002709,69.9999,277.4213,259.4081,100.6773,-1.6774e-05,-2.93e-06,0.0,0 STARLINK-6221,1 56484U 23064AN  24025.08979750 -.00000293  00000-0 -16774-4 0  9995,2 56484  69.9999 277.4213 0002709 259.4081 100.6773 14.98323969 39711,6950.212,96.107,573.959,570.194,0.0
56484.0,STARLINK-6221,PAYLOAD,2024-01-25 19:46:45,14.98340689,0.0002472,70.0,275.5705,262.1558,97.932,9.1219e-05,9.96e-06,0.0,0 STARLINK-6221,1 56484U 23064AN  24025.82414179  .00000996  00000-0  91219-4 0  9991,2 56484  70.0000 275.5705 0002472 262.1558  97.9320 14.98340689 40186,6950.16,96.106,573.743,570.307,0.0
56484.0,STARLINK-6221,PAYLOAD,2024-01-25 21:22:53,14.98325981,0.000227,70.0023,275.4025,267.0996,92.9904,0.00039486,4.621e-05,0.0,0 STARLINK-6221,1 56484U 23064AN  24025.89090178  .00004621  00000-0  39486-3 0  9993,2 56484  70.0023 275.4025 0002270 267.0996  92.9904 14.98325981 39832,6950.205,96.107,573.648,570.493,0.0
56484.0,STARLINK-6221,PAYLOAD,2024-01-26 02:11:15,14.9836738,0.0002498,69.9998,274.8963,257.8608,102.2271,0.00036326,4.248e-05,0.0,0 STARLINK-6221,1 56484U 23064AN  24026.09115312  .00004248  00000-0  36326-3 0  9999,2 56484  69.9998 274.8963 0002498 257.8608 102.2271 14.98367380 40229,6950.077,96.105,573.678,570.206,0.0
56484.0,STARLINK-6221,PAYLOAD,2024-01-26 19:48:46,14.98330113,0.0003467,69.9977,273.0432,265.8283,94.248,-6.8288e-05,-9.08e-06,0.0,0 STARLINK-6221,1 56484U 23064AN  24026.82554176 -.00000908  00000-0 -68288-4 0  9999,2 56484  69.9977 273.0432 0003467 265.8283  94.2480 14.98330113 40331,6950.193,96.107,574.467,569.648,0.0
56484.0,STARLINK-6221,PAYLOAD,2024-01-27 02:13:19,14.98326695,0.0003547,69.9976,272.37,268.7761,91.2992,-8.3626e-05,-1.091e-05,0.0,0 STARLINK-6221,1 56484U 23064AN  24027.09258446 -.00001091  00000-0 -83626-4 0  9997,2 56484  69.9976 272.3700 0003547 268.7761  91.2992 14.98326695 40012,6950.203,96.107,574.533,569.603,0.0
